TRANSPORTER-12 OBJECT BT
1 62674U 25009BT  26068.71416991  .00013824  00000+0  51029-3 0  9998
2 62674  97.4094 151.5992 0003682 313.5044  46.5889 15.27872239121360
STARLINK-34616          
1 66320U 25253B   26068.72021285  .00041047  00000+0  14923-2 0  9999
2 66320  43.0023 211.9475 0001173 258.2993 101.7727 15.27592386 20331
